GLOBALSTAR M063         
1 26081U 00008A   24364.97011132 -.00000039  00000+0  63264-3 0  9994
2 26081  51.9921 197.2284 0004756   3.6866 144.6238 11.86167943137498
GLOBALSTAR M062         
1 26082U 00008B   24364.93141014 -.00000065  00000+0  24145-3 0  9998
2 26082  51.9827 233.5105 0007914 105.5061  16.4671 12.43457011475560
GLOBALSTAR M060         
1 26083U 00008C   24364.78924273 -.00000050  00000+0  40253-3 0  9990
2 26083  51.9989 169.9689 0004361 128.2070 245.0473 12.17652400131732
GLOBALSTAR M064         
1 26084U 00008D   24364.85083327 -.00000030  00000+0  75460-3 0  9991
2 26084  52.0048 298.3672 0002020  77.9703 282.1356 11.88528082146961
GLOBALSTAR M069         
1 31573U 07020C   24364.71601683 -.00000067  00000+0  21147-3 0  9990
2 31573  51.9972 342.1873 0000403  94.1441  77.4089 12.53307949813068
GLOBALSTAR M072         
1 31574U 07020D   24364.96572633 -.00000089  00000+0 -51360-4 0  9996
2 31574  52.0081  82.5654 0001121  86.7220  85.6329 11.95103845811288
GLOBALSTAR M071         
1 31576U 07020F   24364.66647159 -.00000073  00000+0  18409-3 0  9999
2 31576  52.0084 346.5280 0001865  63.0675 108.5628 12.31891237474268
